0 FENGYUN 1C DEB
1 36248U 99025DVZ 13276.30981033  .00001394  00000-0  11923-2 0  1834
2 36248 098.1530 301.3284 0227862 288.9578 069.8050 13.77222463244326
0 FENGYUN 1C DEB
1 36248U 99025DVZ 13279.86966546  .00001532  00000-0  13155-2 0  1844
2 36248 098.1517 304.3912 0223879 279.0159 079.9507 13.77237086244812
0 FENGYUN 1C DEB
1 36248U 99025DVZ 13283.86506230  .00001578  00000-0  13511-2 0  1856
2 36248 098.1522 307.8238 0225010 268.1869 089.3924 13.77251531245363
